{"fetched_at":"2026-03-29T16:36:15Z","count":15609,"tles":[{"name":"STARLINK-11337 [DTC]","line1":"1 61940U 24209B   26087.80263062  .00164782  00000+0  13350-2 0  9998","line2":"2 61940  53.1572 276.7600 0000736  66.5653 293.5442 15.69765934 79729","category":"Starlink"}]}