{
  "norad_id": 61940,
  "name": "STARLINK-11337 [DTC]",
  "history": [
    {
      "epoch": "2026-03-28T19:15:47.285568Z",
      "apogee_km": 360.062655843848,
      "perigee_km": 359.0707311060942,
      "latitude_deg": -1.6090495832104243e-05,
      "longitude_deg": 161.59512008475406,
      "height_km": 360.2833863739109,
      "semi_major_axis_km": 6737.70369347497,
      "eccentricity": 7.361e-05,
      "inclination_deg": 53.1572,
      "raan_deg": 276.76,
      "arg_perigee_deg": 66.5653,
      "mean_anomaly_deg": 293.5442,
      "mean_motion_rev_day": 15.69765934
    }
  ]
}